[{"OBJECT_NAME":"STARLINK-34956","OBJECT_ID":"2025-175A","EPOCH":"2026-03-09T14:39:24.824736","MEAN_MOTION":15.05654373,"ECCENTRICITY":0.0002446,"INCLINATION":97.6021,"RA_OF_ASC_NODE":302.5036,"ARG_OF_PERICENTER":91.1529,"MEAN_ANOMALY":268.9978,"EPHEMERIS_TYPE":0,"CLASSIFICATION_TYPE":"U","NORAD_CAT_ID":65174,"ELEMENT_SET_NO":999,"REV_AT_EPOCH":3259,"BSTAR":2.3235e-5,"MEAN_MOTION_DOT":2.74e-6,"MEAN_MOTION_DDOT":0},{"OBJECT_NAME":"OBJECT R","OBJECT_ID":"2021-022R","EPOCH":"2026-03-09T22:54:37.456416","MEAN_MOTION":15.08912229,"ECCENTRICITY":0.00182027,"INCLINATION":97.3728,"RA_OF_ASC_NODE":308.5333,"ARG_OF_PERICENTER":149.1845,"MEAN_ANOMALY":211.0456,"EPHEMERIS_TYPE":0,"CLASSIFICATION_TYPE":"U","NORAD_CAT_ID":47947,"ELEMENT_SET_NO":999,"REV_AT_EPOCH":27304,"BSTAR":2.1057411e-5,"MEAN_MOTION_DOT":2.72e-6,"MEAN_MOTION_DDOT":0}]
